[{"OBJECT_NAME":"STARLINK-35729","OBJECT_ID":"2025-280S","EPOCH":"2026-03-09T23:21:34.879968","MEAN_MOTION":14.98329385,"ECCENTRICITY":0.00029279,"INCLINATION":70.0029,"RA_OF_ASC_NODE":333.9285,"ARG_OF_PERICENTER":271.5719,"MEAN_ANOMALY":88.5104,"EPHEMERIS_TYPE":0,"CLASSIFICATION_TYPE":"U","NORAD_CAT_ID":66837,"ELEMENT_SET_NO":999,"REV_AT_EPOCH":1611,"BSTAR":0.0014761065,"MEAN_MOTION_DOT":0.00017564,"MEAN_MOTION_DDOT":0},{"OBJECT_NAME":"FENGYUN 1C DEB","OBJECT_ID":"1999-025CGT","EPOCH":"2026-03-05T04:25:54.279264","MEAN_MOTION":14.0465685,"ECCENTRICITY":0.0439164,"INCLINATION":98.3742,"RA_OF_ASC_NODE":47.1093,"ARG_OF_PERICENTER":284.9374,"MEAN_ANOMALY":70.3578,"EPHEMERIS_TYPE":0,"CLASSIFICATION_TYPE":"U","NORAD_CAT_ID":31805,"ELEMENT_SET_NO":999,"REV_AT_EPOCH":63520,"BSTAR":0.0023074638,"MEAN_MOTION_DOT":8.792e-5,"MEAN_MOTION_DDOT":0}]
